$$SOE
2461302.500000000, A.D. 2026-Sep-19 00:00:00.0000, -2.189959094624828E+07, -1.033228208200020E+08, 1.252889417447522E+06,
2461309.500000000, A.D. 2026-Sep-26 00:00:00.0000, -3.443957726619727E+06, -1.157099902971324E+08, 3.168931703277975E+05,
2461316.500000000, A.D. 2026-Oct-03 00:00:00.0000, 1.514525437281821E+07, -1.244693641395519E+08, -6.303574916983843E+05,
2461323.500000000, A.D. 2026-Oct-10 00:00:00.0000, 3.337680957413828E+07, -1.301558109081298E+08, -1.562882922998108E+06,
2461330.500000000, A.D. 2026-Oct-17 00:00:00.0000, 5.094972156372184E+07, -1.332312632144930E+08, -2.464618005426720E+06,
2461337.500000000, A.D. 2026-Oct-24 00:00:00.0000, 6.767630618019381E+07, -1.340735125054179E+08, -3.325436945515878E+06,
2461344.500000000, A.D. 2026-Oct-31 00:00:00.0000, 8.343715563325326E+07, -1.329913921563691E+08, -4.138815074234962E+06,
2461351.500000000, A.D. 2026-Nov-07 00:00:00.0000, 9.815448860625254E+07, -1.302392097342402E+08, -4.900438349031098E+06,
2461358.500000000, A.D. 2026-Nov-14 00:00:00.0000, 1.117760518280739E+08, -1.260286807731249E+08, -5.607359491237298E+06,
2461365.500000000, A.D. 2026-Nov-21 00:00:00.0000, 1.242651612524211E+08, -1.205383368597829E+08, -6.257473347876601E+06,
2461372.500000000, A.D. 2026-Nov-28 00:00:00.0000, 1.355943833980324E+08, -1.139208402102193E+08, -6.849182380186863E+06,
2461379.500000000, A.D. 2026-Dec-05 00:00:00.0000, 1.457414208331260E+08, -1.063086804729240E+08, -7.381177912369095E+06,
2461386.500000000, A.D. 2026-Dec-12 00:00:00.0000, 1.546863542837974E+08, -9.781865720597637E+07, -7.852292731794149E+06,
2461393.500000000, A.D. 2026-Dec-19 00:00:00.0000, 1.624097284668010E+08, -8.855546925764997E+07, -8.261398148466054E+06,
2461400.500000000, A.D. 2026-Dec-26 00:00:00.0000, 1.688911658292882E+08, -7.861465989040722E+07, -8.607329007305671E+06,
2461407.500000000, A.D. 2027-Jan-02 00:00:00.0000, 1.741083084474429E+08, -6.808511040725885E+07, -8.888826155846201E+06,
2461414.500000000, A.D. 2027-Jan-09 00:00:00.0000, 1.780359580118194E+08, -5.705123614647749E+07, -9.104489482793655E+06,
2461421.500000000, A.D. 2027-Jan-16 00:00:00.0000, 1.806453267965351E+08, -4.559501428584289E+07, -9.252736883323902E+06,
2461428.500000000, A.D. 2027-Jan-23 00:00:00.0000, 1.819033398247217E+08, -3.379796081042954E+07, -9.331765932829190E+06,
2461435.500000000, A.D. 2027-Jan-30 00:00:00.0000, 1.817719468551064E+08, -2.174317335882470E+07, -9.339516011449855E+06,
2461442.500000000, A.D. 2027-Feb-06 00:00:00.0000, 1.802074168747331E+08, -9.517567612520196E+06, -9.273629315754008E+06,
2461449.500000000, A.D. 2027-Feb-13 00:00:00.0000, 1.771596005085392E+08, 2.785540312039967E+06, -9.131409694274526E+06,
2461456.500000000, A.D. 2027-Feb-20 00:00:00.0000, 1.725711618029004E+08, 1.506330596204818E+07, -8.909779103458647E+06,
2461463.500000000, A.D. 2027-Feb-27 00:00:00.0000, 1.663768136932923E+08, 2.719940884153489E+07, -8.605233452862127E+06,
2461470.500000000, A.D. 2027-Mar-06 00:00:00.0000, 1.585026465353599E+08, 3.905890255728829E+07, -8.213801950213738E+06,
2461477.500000000, A.D. 2027-Mar-13 00:00:00.0000, 1.488657370705167E+08, 5.048130472066611E+07, -7.731018692859452E+06,
2461484.500000000, A.D. 2027-Mar-20 00:00:00.0000, 1.373744270533776E+08, 6.127109353246138E+07, -7.151925580476163E+06,
2461491.500000000, A.D. 2027-Mar-27 00:00:00.0000, 1.239300650896308E+08, 7.118436154415597E+07, -6.471145985936966E+06,
2461498.500000000, A.D. 2027-Apr-03 00:00:00.0000, 1.084318272391225E+08, 7.990975893051797E+07, -5.683110189382594E+06,
2461505.500000000, A.D. 2027-Apr-10 00:00:00.0000, 9.078793978474411E+07, 8.704101988891914E+07, -4.782600555545863E+06,
2461512.500000000, A.D. 2027-Apr-17 00:00:00.0000, 7.094022435936604E+07, 9.203753757350850E+07, -3.765968762256633E+06,
2461519.500000000, A.D. 2027-Apr-24 00:00:00.0000, 4.891643601373935E+07, 9.416990477543598E+07, -2.633766968205065E+06,
2461526.500000000, A.D. 2027-May-01 00:00:00.0000, 2.493993588921406E+07, 9.245410071755724E+07, -1.396319472502846E+06,
2461533.500000000, A.D. 2027-May-08 00:00:00.0000, -3.492350590467557E+05, 8.560802237038174E+07, -8.506106745892018E+04,
2461540.500000000, A.D. 2027-May-15 00:00:00.0000, -2.549910544990810E+07, 7.216128164099331E+07, 1.226965890070524E+06,
2461547.500000000, A.D. 2027-May-22 00:00:00.0000, -4.777248741395496E+07, 5.104878184640335E+07, 2.400010684305407E+06,
2461554.500000000, A.D. 2027-May-29 00:00:00.0000, -6.333022414895094E+07, 2.296669199859046E+07, 3.235423587586419E+06,
2461561.500000000, A.D. 2027-Jun-05 00:00:00.0000, -6.916970186239980E+07, -8.636625228005074E+06, 3.574344485741374E+06,
2461568.500000000, A.D. 2027-Jun-12 00:00:00.0000, -6.535592883583122E+07, -3.917426493948548E+07, 3.414601051409669E+06,
2461575.500000000, A.D. 2027-Jun-19 00:00:00.0000, -5.439790493772878E+07, -6.561531375306410E+07, 2.881820086940672E+06,
2461582.500000000, A.D. 2027-Jun-26 00:00:00.0000, -3.910982648703991E+07, -8.701225441291557E+07, 2.119861877749570E+06,
2461589.500000000, A.D. 2027-Jul-03 00:00:00.0000, -2.157174350883425E+07, -1.035741547068800E+08, 1.236152656061284E+06,
2461596.500000000, A.D. 2027-Jul-10 00:00:00.0000, -3.107021189409174E+06, -1.158916676475635E+08, 2.995902736011595E+05,
2461603.500000000, A.D. 2027-Jul-17 00:00:00.0000, 1.548011536156540E+07, -1.245917850064627E+08, -6.476317179224566E+05,
2461610.500000000, A.D. 2027-Jul-24 00:00:00.0000, 3.370275511834089E+07, -1.302278772755756E+08, -1.579757107738264E+06,
2461617.500000000, A.D. 2027-Jul-31 00:00:00.0000, 5.126250791432121E+07, -1.332603338366984E+08, -2.480854702761747E+06,
2461624.500000000, A.D. 2027-Aug-07 00:00:00.0000, 6.797325486966528E+07, -1.340656162002714E+08, -3.340880109378025E+06,
2461631.500000000, A.D. 2027-Aug-14 00:00:00.0000, 8.371653641681762E+07, -1.329514861507775E+08, -4.153359679694660E+06,
2461638.500000000, A.D. 2027-Aug-21 00:00:00.0000, 9.841515073619488E+07, -1.301714126914331E+08, -4.914012174888842E+06,
2461645.500000000, A.D. 2027-Aug-28 00:00:00.0000, 1.120172020016325E+08, -1.259364605289776E+08, -5.619911517193459E+06,
2461652.500000000, A.D. 2027-Sep-04 00:00:00.0000, 1.244862263121195E+08, -1.204246564039478E+08, -6.268966239521563E+06,
2461659.500000000, A.D. 2027-Sep-11 00:00:00.0000, 1.357949239725000E+08, -1.137882702518398E+08, -6.859587685601301E+06,
2461666.500000000, A.D. 2027-Sep-18 00:00:00.0000, 1.459210749568503E+08, -1.061594856582116E+08, -7.390472795046523E+06,
2461673.500000000, A.D. 2027-Sep-25 00:00:00.0000, 1.548447983758812E+08, -9.765486378015944E+07, -7.860457612856328E+06,
2461680.500000000, A.D. 2027-Oct-02 00:00:00.0000, 1.625466493604723E+08, -8.837892007770811E+07, -8.268414998957470E+06,
2461687.500000000, A.D. 2027-Oct-09 00:00:00.0000, 1.690062401820876E+08, -7.842706058587605E+07, -8.613180102493040E+06,
2461694.500000000, A.D. 2027-Oct-16 00:00:00.0000, 1.742011871150235E+08, -6.788806954728882E+07, -8.893493157215167E+06,
2461701.500000000, A.D. 2027-Oct-23 00:00:00.0000, 1.781062539440848E+08, -5.684630175261879E+07, -9.107952786960930E+06,
2461708.500000000, A.D. 2027-Oct-30 00:00:00.0000, 1.806926059113456E+08, -4.538370802910316E+07, -9.254975190479737E+06,
2461715.500000000, A.D. 2027-Nov-06 00:00:00.0000, 1.819271135812396E+08, -3.358180994035249E+07, -9.332755797707945E+06,
2461722.500000000, A.D. 2027-Nov-13 00:00:00.0000, 1.817716633695542E+08, -2.152374251957022E+07, -9.339231123733312E+06,
2461729.500000000, A.D. 2027-Nov-20 00:00:00.0000, 1.801824501790927E+08, -9.296495451980477E+06, -9.272039703781290E+06,
2461736.500000000, A.D. 2027-Nov-27 00:00:00.0000, 1.771092398937169E+08, 3.006496035617686E+06, -9.128481116163939E+06,
2461743.500000000, A.D. 2027-Dec-04 00:00:00.0000, 1.724946037837884E+08, 1.528221199806072E+07, -8.905472802317273E+06,
2461750.500000000, A.D. 2027-Dec-11 00:00:00.0000, 1.662731578342831E+08, 2.741408704922585E+07, -8.599506114244297E+06,
2461757.500000000, A.D. 2027-Dec-18 00:00:00.0000, 1.583708948417487E+08, 3.926684147439575E+07, -8.206605690423742E+06,
2461764.500000000, A.D. 2027-Dec-25 00:00:00.0000, 1.487048005563017E+08, 5.067954088098235E+07, -7.722301344377212E+06,
2461771.500000000, A.D. 2028-Jan-01 00:00:00.0000, 1.371831483747498E+08, 6.145604725682379E+07, -7.141631782756964E+06,
$$EOE